[{"OBJECT_NAME":"STARLINK-3935","OBJECT_ID":"2022-051S","EPOCH":"2026-03-09T13:04:03.710496","MEAN_MOTION":15.08833176,"ECCENTRICITY":0.00012782,"INCLINATION":53.2154,"RA_OF_ASC_NODE":129.7777,"ARG_OF_PERICENTER":97.6926,"MEAN_ANOMALY":262.4211,"EPHEMERIS_TYPE":0,"CLASSIFICATION_TYPE":"U","NORAD_CAT_ID":52549,"ELEMENT_SET_NO":999,"REV_AT_EPOCH":21142,"BSTAR":5.6562492e-5,"MEAN_MOTION_DOT":6.12e-6,"MEAN_MOTION_DDOT":0},{"OBJECT_NAME":"CZ-6A DEB","OBJECT_ID":"2024-140KH","EPOCH":"2026-03-09T14:59:57.464160","MEAN_MOTION":15.05079233,"ECCENTRICITY":0.0091207,"INCLINATION":89.0655,"RA_OF_ASC_NODE":284.096,"ARG_OF_PERICENTER":124.4022,"MEAN_ANOMALY":236.5882,"EPHEMERIS_TYPE":0,"CLASSIFICATION_TYPE":"U","NORAD_CAT_ID":60878,"ELEMENT_SET_NO":999,"REV_AT_EPOCH":8457,"BSTAR":0.0027733,"MEAN_MOTION_DOT":0.00043481,"MEAN_MOTION_DDOT":0}]
